{"type": "FeatureCollection", "features": [ {"type": "Feature", "properties": {"norad_id": 30630, "name": "FENGYUN 1C DEB", "group": "fengyun-1c-debris", "lat": -8.941607883538563, "lon": 169.51579687571723, "alt_km": 812.2837317596559, "timestamp": "2025-12-20T16:47:36.564271+00:00", "meta": {"OBJECT_NAME": "FENGYUN 1C DEB", "OBJECT_ID": "1999-025ANM", "EPOCH": "2025-12-19T10:35:46.106304", "MEAN_MOTION": 14.22400718, "ECCENTRICITY": 0.0025808, "INCLINATION": 99.1725, "RA_OF_ASC_NODE": 166.7505, "ARG_OF_PERICENTER": 55.9979, "MEAN_ANOMALY": 335.9911, "EPHEMERIS_TYPE": 0, "CLASSIFICATION_TYPE": "U", "NORAD_CAT_ID": 30630, "ELEMENT_SET_NO": 999, "REV_AT_EPOCH": 97308, "BSTAR": 0.00062246, "MEAN_MOTION_DOT": 1.343e-05, "MEAN_MOTION_DDOT": 0}, "tle": {"line1": "1 30630U 99025ANM 25353.44150586  .00001343  00000+0  62246-3 0  9991", "line2": "2 30630  99.1725 166.7505 0025808  55.9979 335.9911 14.22400718973081"}}, "geometry": {"type": "Point", "coordinates": [169.51579687571723, -8.941607883538563]}}, {"type": "Feature", "properties": {"norad_id": 30632, "name": "FENGYUN 1C DEB", "group": "fengyun-1c-debris", "lat": -77.43465842692677, "lon": -97.5878491119055, "alt_km": 695.0399477523397, "timestamp": "2025-12-20T16:47:36.564280+00:00", "meta": {"OBJECT_NAME": "FENGYUN 1C DEB", "OBJECT_ID": "1999-025ANP", "EPOCH": "2025-12-20T07:39:24.160896", "MEAN_MOTION": 14.62989712, "ECCENTRICITY": 0.0014377, "INCLINATION": 98.8247, "RA_OF_ASC_NODE": 126.1911, "ARG_OF_PERICENTER": 147.5153, "MEAN_ANOMALY": 269.4526, "EPHEMERIS_TYPE": 0, "CLASSIFICATION_TYPE": "U", "NORAD_CAT_ID": 30632, "ELEMENT_SET_NO": 999, "REV_AT_EPOCH": 97802, "BSTAR": 0.0023557, "MEAN_MOTION_DOT": 0.00012055, "MEAN_MOTION_DDOT": 0}, "tle": {"line1": "1 30632U 99025ANP 25354.31902964  .00012055  00000+0  23557-2 0  9998", "line2": "2 30632  98.8247 126.1911 0014377 147.5153 269.4526 14.62989712978022"}}, "geometry": {"type": "Point", "coordinates": [-97.5878491119055, -77.43465842692677]}}, {"type": "Feature", "properties": {"norad_id": 30633, "name": "FENGYUN 1C DEB", "group": "fengyun-1c-debris", "lat": -79.63047930380901, "lon": -86.82264261153172, "alt_km": 811.5582061172863, "timestamp": "2025-12-20T16:47:36.564291+00:00", "meta": {"OBJECT_NAME": "FENGYUN 1C DEB", "OBJECT_ID": "1999-025ANQ", "EPOCH": "2025-12-18T21:02:34.080576", "MEAN_MOTION": 14.04402448, "ECCENTRICITY": 0.01300862, "INCLINATION": 98.4205, "RA_OF_ASC_NODE": 217.4392, "ARG_OF_PERICENTER": 242.7308, "MEAN_ANOMALY": 181.0418, "EPHEMERIS_TYPE": 0, "CLASSIFICATION_TYPE": "U", "NORAD_CAT_ID": 30633, "ELEMENT_SET_NO": 999, "REV_AT_EPOCH": 95978, "BSTAR": 0.00057231836, "MEAN_MOTION_DOT": 9.42e-06, "MEAN_MOTION_DDOT": 0}, "tle": {"line1": "1 30633U 99025ANQ 25352.87678334  .00000942  00000+0  57232-3 0  9999", "line2": "2 30633  98.4205 217.4392 0130086 242.7308 181.0418 14.04402448959789"}}, "geometry": {"type": "Point", "coordinates": [-86.82264261153172, -79.63047930380901]}}, {"type": "Feature", "properties": {"norad_id": 30634, "name": "FENGYUN 1C DEB", "group": "fengyun-1c-debris", "lat": 71.67683462383341, "lon": -51.857818493669335, "alt_km": 765.5851417869571, "timestamp": "2025-12-20T16:47:36.564301+00:00", "meta": {"OBJECT_NAME": "FENGYUN 1C DEB", "OBJECT_ID": "1999-025ANR", "EPOCH": "2025-12-19T21:59:53.974752", "MEAN_MOTION": 14.09757928, "ECCENTRICITY": 0.0121062, "INCLINATION": 99.2932, "RA_OF_ASC_NODE": 336.9658, "ARG_OF_PERICENTER": 76.6764, "MEAN_ANOMALY": 345.1804, "EPHEMERIS_TYPE": 0, "CLASSIFICATION_TYPE": "U", "NORAD_CAT_ID": 30634, "ELEMENT_SET_NO": 999, "REV_AT_EPOCH": 95718, "BSTAR": 0.0015235, "MEAN_MOTION_DOT": 2.818e-05, "MEAN_MOTION_DDOT": 0}, "tle": {"line1": "1 30634U 99025ANR 25353.91659693  .00002818  00000+0  15235-2 0  9993", "line2": "2 30634  99.2932 336.9658 0121062  76.6764 345.1804 14.09757928957187"}}, "geometry": {"type": "Point", "coordinates": [-51.857818493669335, 71.67683462383341]}}, {"type": "Feature", "properties": {"norad_id": 30639, "name": "FENGYUN 1C DEB", "group": "fengyun-1c-debris", "lat": 29.185815750765805, "lon": 101.91442117122963, "alt_km": 814.3728011159465, "timestamp": "2025-12-20T16:47:36.564311+00:00", "meta": {"OBJECT_NAME": "FENGYUN 1C DEB", "OBJECT_ID": "1999-025ANW", "EPOCH": "2025-12-20T06:35:47.498784", "MEAN_MOTION": 14.32441348, "ECCENTRICITY": 0.0068304, "INCLINATION": 99.0181, "RA_OF_ASC_NODE": 106.5618, "ARG_OF_PERICENTER": 259.3694, "MEAN_ANOMALY": 99.979, "EPHEMERIS_TYPE": 0, "CLASSIFICATION_TYPE": "U", "NORAD_CAT_ID": 30639, "ELEMENT_SET_NO": 999, "REV_AT_EPOCH": 96827, "BSTAR": 0.0021506, "MEAN_MOTION_DOT": 5.93e-05, "MEAN_MOTION_DDOT": 0}, "tle": {"line1": "1 30639U 99025ANW 25354.27485531  .00005930  00000+0  21506-2 0  9992", "line2": "2 30639  99.0181 106.5618 0068304 259.3694  99.9790 14.32441348968276"}}, "geometry": {"type": "Point", "coordinates": [101.91442117122963, 29.185815750765805]}}, {"type": "Feature", "properties": {"norad_id": 30640, "name": "FENGYUN 1C DEB", "group": "fengyun-1c-debris", "lat": 15.99806284453143, "lon": 63.39998646498616, "alt_km": 816.3340131228188, "timestamp": "2025-12-20T16:47:36.564321+00:00", "meta": {"OBJECT_NAME": "FENGYUN 1C DEB", "OBJECT_ID": "1999-025ANX", "EPOCH": "2025-12-20T03:17:16.661760", "MEAN_MOTION": 14.14667927, "ECCENTRICITY": 0.00803792, "INCLINATION": 99.0573, "RA_OF_ASC_NODE": 65.4505, "ARG_OF_PERICENTER": 79.8092, "MEAN_ANOMALY": 313.0287, "EPHEMERIS_TYPE": 0, "CLASSIFICATION_TYPE": "U", "NORAD_CAT_ID": 30640, "ELEMENT_SET_NO": 999, "REV_AT_EPOCH": 96550, "BSTAR": 0.0010192279, "MEAN_MOTION_DOT": 1.978e-05, "MEAN_MOTION_DDOT": 0}, "tle": {"line1": "1 30640U 99025ANX 25354.13699840  .00001978  00000+0  10192-2 0  9996", "line2": "2 30640  99.0573  65.4505 0080379  79.8092 313.0287 14.14667927965501"}}, "geometry": {"type": "Point", "coordinates": [63.39998646498616, 15.99806284453143]}}, {"type": "Feature", "properties": {"norad_id": 30641, "name": "FENGYUN 1C DEB", "group": "fengyun-1c-debris", "lat": 4.769155487399456, "lon": -70.79274491842523, "alt_km": 644.7561989703554, "timestamp": "2025-12-20T16:47:36.564331+00:00", "meta": {"OBJECT_NAME": "FENGYUN 1C DEB", "OBJECT_ID": "1999-025ANY", "EPOCH": "2025-12-20T02:13:29.682624", "MEAN_MOTION": 14.79015011, "ECCENTRICITY": 0.01364103, "INCLINATION": 98.9434, "RA_OF_ASC_NODE": 289.2855, "ARG_OF_PERICENTER": 103.6266, "MEAN_ANOMALY": 272.7093, "EPHEMERIS_TYPE": 0, "CLASSIFICATION_TYPE": "U", "NORAD_CAT_ID": 30641, "ELEMENT_SET_NO": 999, "REV_AT_EPOCH": 641, "BSTAR": 0.00031447164, "MEAN_MOTION_DOT": 2.647e-05, "MEAN_MOTION_DDOT": 0}, "tle": {"line1": "1 30641U 99025ANY 25354.09270466  .00002647  00000+0  31447-3 0  9992", "line2": "2 30641  98.9434 289.2855 0136410 103.6266 272.7093 14.79015011  6411"}}, "geometry": {"type": "Point", "coordinates": [-70.79274491842523, 4.769155487399456]}}, {"type": "Feature", "properties": {"norad_id": 30646, "name": "FENGYUN 1C DEB", "group": "fengyun-1c-debris", "lat": -76.93210493179917, "lon": 55.92102801545759, "alt_km": 867.4795421044519, "timestamp": "2025-12-20T16:47:36.564342+00:00", "meta": {"OBJECT_NAME": "FENGYUN 1C DEB", "OBJECT_ID": "1999-025APD", "EPOCH": "2025-12-20T06:57:01.147104", "MEAN_MOTION": 14.09669079, "ECCENTRICITY": 0.0047892, "INCLINATION": 98.6516, "RA_OF_ASC_NODE": 14.5364, "ARG_OF_PERICENTER": 10.7357, "MEAN_ANOMALY": 349.4825, "EPHEMERIS_TYPE": 0, "CLASSIFICATION_TYPE": "U", "NORAD_CAT_ID": 30646, "ELEMENT_SET_NO": 999, "REV_AT_EPOCH": 96711, "BSTAR": 0.00054975, "MEAN_MOTION_DOT": 9.32e-06, "MEAN_MOTION_DDOT": 0}, "tle": {"line1": "1 30646U 99025APD 25354.28959661  .00000932  00000+0  54975-3 0  9995", "line2": "2 30646  98.6516  14.5364 0047892  10.7357 349.4825 14.09669079967112"}}, "geometry": {"type": "Point", "coordinates": [55.92102801545759, -76.93210493179917]}}, {"type": "Feature", "properties": {"norad_id": 30647, "name": "FENGYUN 1C DEB", "group": "fengyun-1c-debris", "lat": -75.0858666519441, "lon": -36.17106834749017, "alt_km": 725.7858300047201, "timestamp": "2025-12-20T16:47:36.564352+00:00", "meta": {"OBJECT_NAME": "FENGYUN 1C DEB", "OBJECT_ID": "1999-025APE", "EPOCH": "2025-12-20T07:49:45.907392", "MEAN_MOTION": 14.56602132, "ECCENTRICITY": 0.0029755, "INCLINATION": 98.9901, "RA_OF_ASC_NODE": 286.9574, "ARG_OF_PERICENTER": 150.09, "MEAN_ANOMALY": 334.1988, "EPHEMERIS_TYPE": 0, "CLASSIFICATION_TYPE": "U", "NORAD_CAT_ID": 30647, "ELEMENT_SET_NO": 999, "REV_AT_EPOCH": 98099, "BSTAR": 0.0013366, "MEAN_MOTION_DOT": 5.944e-05, "MEAN_MOTION_DDOT": 0}, "tle": {"line1": "1 30647U 99025APE 25354.32622578  .00005944  00000+0  13366-2 0  9991", "line2": "2 30647  98.9901 286.9574 0029755 150.0900 334.1988 14.56602132980993"}}, "geometry": {"type": "Point", "coordinates": [-36.17106834749017, -75.0858666519441]}}, {"type": "Feature", "properties": {"norad_id": 30648, "name": "FENGYUN 1C DEB", "group": "fengyun-1c-debris", "lat": -10.001872103228179, "lon": -92.00366868392483, "alt_km": 733.7841937957219, "timestamp": "2025-12-20T16:47:36.564362+00:00", "meta": {"OBJECT_NAME": "FENGYUN 1C DEB", "OBJECT_ID": "1999-025APF", "EPOCH": "2025-12-18T18:05:21.149664", "MEAN_MOTION": 14.48208126, "ECCENTRICITY": 0.00339948, "INCLINATION": 98.6416, "RA_OF_ASC_NODE": 87.5439, "ARG_OF_PERICENTER": 109.9742, "MEAN_ANOMALY": 19.808, "EPHEMERIS_TYPE": 0, "CLASSIFICATION_TYPE": "U", "NORAD_CAT_ID": 30648, "ELEMENT_SET_NO": 999, "REV_AT_EPOCH": 97953, "BSTAR": 0.0015690912, "MEAN_MOTION_DOT": 5.852e-05, "MEAN_MOTION_DDOT": 0}, "tle": {"line1": "1 30648U 99025APF 25352.75371701  .00005852  00000+0  15691-2 0  9997", "line2": "2 30648  98.6416  87.5439 0033994 109.9742  19.8080 14.48208126979538"}}, "geometry": {"type": "Point", "coordinates": [-92.00366868392483, -10.001872103228179]}}]}